[{"OBJECT_NAME":"THEA","OBJECT_ID":"2018-099AQ","EPOCH":"2026-03-09T22:33:02.658240","MEAN_MOTION":15.31454284,"ECCENTRICITY":0.00065849,"INCLINATION":97.4542,"RA_OF_ASC_NODE":137.8815,"ARG_OF_PERICENTER":275.4664,"MEAN_ANOMALY":84.5826,"EPHEMERIS_TYPE":0,"CLASSIFICATION_TYPE":"U","NORAD_CAT_ID":43796,"ELEMENT_SET_NO":999,"REV_AT_EPOCH":39748,"BSTAR":0.00074635274,"MEAN_MOTION_DOT":0.00022649,"MEAN_MOTION_DDOT":0},{"OBJECT_NAME":"STARLINK-36031","OBJECT_ID":"2025-270F","EPOCH":"2026-03-09T23:41:33.495936","MEAN_MOTION":15.27605123,"ECCENTRICITY":4.43e-5,"INCLINATION":43.0003,"RA_OF_ASC_NODE":54.3023,"ARG_OF_PERICENTER":213.5296,"MEAN_ANOMALY":146.5528,"EPHEMERIS_TYPE":0,"CLASSIFICATION_TYPE":"U","NORAD_CAT_ID":66593,"ELEMENT_SET_NO":999,"REV_AT_EPOCH":1775,"BSTAR":0.0011946601,"MEAN_MOTION_DOT":0.00032784,"MEAN_MOTION_DDOT":0}]
